{
  "norad_id": 26464,
  "name": "CLUSTER II-FM8 (TANGO)",
  "history": [
    {
      "epoch": "2026-03-30T14:32:02.518080",
      "apogee_km": 131209.05137312383,
      "perigee_km": 1193.7133749492295,
      "latitude_deg": 76.49245884926385,
      "longitude_deg": -43.46386880008504,
      "semi_major_axis_km": 72579.51937403652,
      "eccentricity": 0.89567511,
      "inclination_deg": 149.641,
      "raan_deg": 39.0046,
      "arg_perigee_deg": 255.1525,
      "mean_anomaly_deg": 0.3931,
      "mean_motion_rev_day": 0.44399863
    }
  ]
}